[{"OBJECT_NAME":"STARLINK-32640","OBJECT_ID":"2024-229G","EPOCH":"2026-03-09T13:25:10.363872","MEAN_MOTION":15.27592769,"ECCENTRICITY":8.763e-5,"INCLINATION":42.9959,"RA_OF_ASC_NODE":271.2603,"ARG_OF_PERICENTER":169.5848,"MEAN_ANOMALY":190.5022,"EPHEMERIS_TYPE":0,"CLASSIFICATION_TYPE":"U","NORAD_CAT_ID":62198,"ELEMENT_SET_NO":999,"REV_AT_EPOCH":7054,"BSTAR":0.00094614882,"MEAN_MOTION_DOT":0.00025875,"MEAN_MOTION_DDOT":0},{"OBJECT_NAME":"239ALFEROV (RS61S)","OBJECT_ID":"2025-155F","EPOCH":"2026-03-09T21:46:33.382848","MEAN_MOTION":15.29933217,"ECCENTRICITY":0.00084878,"INCLINATION":97.4469,"RA_OF_ASC_NODE":37.6373,"ARG_OF_PERICENTER":151.5904,"MEAN_ANOMALY":208.58,"EPHEMERIS_TYPE":0,"CLASSIFICATION_TYPE":"U","NORAD_CAT_ID":64881,"ELEMENT_SET_NO":999,"REV_AT_EPOCH":6561,"BSTAR":0.00067233359,"MEAN_MOTION_DOT":0.00019457,"MEAN_MOTION_DDOT":0}]
